[{"OBJECT_NAME":"STARLINK-32123","OBJECT_ID":"2024-132G","EPOCH":"2026-03-09T22:03:48.955104","MEAN_MOTION":15.30174058,"ECCENTRICITY":0.00013242,"INCLINATION":53.162,"RA_OF_ASC_NODE":38.7293,"ARG_OF_PERICENTER":93.9693,"MEAN_ANOMALY":266.1459,"EPHEMERIS_TYPE":0,"CLASSIFICATION_TYPE":"U","NORAD_CAT_ID":60284,"ELEMENT_SET_NO":999,"REV_AT_EPOCH":9177,"BSTAR":-7.5109e-7,"MEAN_MOTION_DOT":-3.81e-6,"MEAN_MOTION_DDOT":0},{"OBJECT_NAME":"NUSAT-49 (KLARA DAN VON NEUMANN)","OBJECT_ID":"2024-149AJ","EPOCH":"2026-03-09T19:09:16.004160","MEAN_MOTION":15.30828857,"ECCENTRICITY":0.00011321,"INCLINATION":97.3807,"RA_OF_ASC_NODE":150.738,"ARG_OF_PERICENTER":286.7761,"MEAN_ANOMALY":73.3356,"EPHEMERIS_TYPE":0,"CLASSIFICATION_TYPE":"U","NORAD_CAT_ID":60500,"ELEMENT_SET_NO":999,"REV_AT_EPOCH":8693,"BSTAR":0.00043568345,"MEAN_MOTION_DOT":0.00012912,"MEAN_MOTION_DDOT":0}]
